OBJECT_NAME,OBJECT_ID,EPOCH,MEAN_MOTION,ECCENTRICITY,INCLINATION,RA_OF_ASC_NODE,ARG_OF_PERICENTER,MEAN_ANOMALY,EPHEMERIS_TYPE,CLASSIFICATION_TYPE,NORAD_CAT_ID,ELEMENT_SET_NO,REV_AT_EPOCH,BSTAR,MEAN_MOTION_DOT,MEAN_MOTION_DDOT
LEMUR-2-ROUNDTRIPPER,2025-009DG,2026-07-19T11:50:18.871872,15.04268201,.00044749,97.7242,283.1351,56.4310,303.7343,0,U,62711,999,8248,.2821107E-3,.3864E-4,0
LEMUR-2-MYNAMEISJEFF,2025-009DH,2026-07-19T05:25:01.282656,15.04257529,.00043542,97.7290,283.2680,89.2451,270.9274,0,U,62712,999,8244,.28766768E-3,.394E-4,0
LEMUR-2-LEIA-PHILIP,2025-052AN,2026-07-19T09:55:17.550912,14.97392852,.00050458,97.6793,91.8172,110.6841,249.4922,0,U,63246,999,7349,.10762848E-4,.68E-6,0
LEMUR-2-LIA-MARTIN,2025-052AQ,2026-07-19T06:32:27.764448,14.98043580,.00050463,97.6853,92.2046,79.9145,280.2647,0,U,63248,999,7348,.10888573E-3,.1229E-4,0
LEMUR-2-DELOITTE-1,2025-052BB,2026-07-19T15:42:29.187072,14.97803461,.00025336,97.6885,92.9105,58.3586,301.7883,0,U,63259,999,7355,.20138494E-3,.2308E-4,0
LEMUR-2-EMERSONROSE,2025-052BD,2026-07-19T06:19:49.369440,14.99310415,.00024822,97.6885,93.1485,50.6470,309.4973,0,U,63261,999,7354,.18657293E-3,.222E-4,0
LEMUR-2-MARACHE-FRAN,2025-052BE,2026-07-19T05:12:30.189312,15.00329187,.00056834,97.6818,93.4730,236.5644,123.5037,0,U,63262,999,7356,.1293173E-3,.1563E-4,0
LEMUR-2-THEFALCONER,2025-052BG,2026-07-19T06:50:00.777408,14.97572429,.00005962,97.6817,92.1324,230.6616,129.4553,0,U,63264,999,7349,.10089012E-3,.112E-4,0
LEMUR-2-UNTITLED-SC,2025-061A,2026-07-19T11:35:22.149600,15.13661330,.00196049,97.5660,175.6170,148.7884,211.4515,0,U,63351,999,7247,.98377289E-4,.171E-4,0
LEMUR-2-ESPERANZA,2025-061B,2026-07-19T10:59:25.063872,15.13767290,.00192325,97.5667,175.6934,148.2306,212.0090,0,U,63352,999,7247,.94156696E-4,.1638E-4,0
LEMUR-2-KREMPEL-BRO2,2025-061C,2026-07-19T14:35:19.730400,15.14195193,.0020364,97.5711,176.4170,140.7099,219.5614,0,U,63353,999,7251,.10117862E-3,.1788E-4,0
LEMUR-2-THERMORAPTOR,2025-061D,2026-07-19T10:56:40.377696,15.14277643,.00200768,97.5719,176.3479,140.1726,220.0984,0,U,63354,999,7249,.99978011E-4,.177E-4,0
LEMUR-2-NEUROSPICY,2025-061E,2026-07-19T10:12:17.540064,15.14396686,.00178422,97.5647,175.9184,143.0612,217.1852,0,U,63355,999,7249,.10396441E-3,.1848E-4,0
LEMUR-2-TILLINFINITY,2025-061F,2026-07-19T10:45:10.933344,15.14981399,.00193429,97.5631,176.2543,132.0655,228.2226,0,U,63356,999,7252,.10405847E-3,.1882E-4,0
LEMUR-2-KREMPEL-BRO1,2025-061G,2026-07-19T08:37:47.598816,15.14787622,.00199912,97.5633,176.0732,133.7081,226.5811,0,U,63357,999,7250,.10274823E-3,.1848E-4,0
LEMUR-2-LANGER2SPACE,2025-061H,2026-07-19T11:00:24.552864,15.14481364,.00177577,97.5636,175.9728,141.3528,218.8979,0,U,63358,999,7250,.1012503E-3,.1802E-4,0
LEMUR-2-BALTO,2025-052BH,2026-07-19T06:25:49.045728,15.00383313,.00049945,97.6919,93.5170,310.0792,49.9993,0,U,63395,999,7357,.17242798E-3,.2106E-4,0
LEMUR-2-KRISH,2025-135AK,2026-07-19T07:20:45.252384,14.96463850,.0001111,97.7765,314.9702,103.9432,256.1912,0,U,64561,999,5872,.17719873E-3,.1953E-4,0
LEMUR-2-HUBBLE-4,2025-135AP,2026-07-19T15:06:28.623744,14.93691943,.00030145,97.7722,314.1613,151.7500,208.3883,0,U,64565,999,5871,.39489828E-4,.361E-5,0
LEMUR-2-SEJONG-2,2025-135BL,2026-07-19T14:14:14.288352,14.96932235,.00042383,97.7709,315.4010,197.8495,162.2578,0,U,64586,999,5879,.21556269E-3,.2418E-4,0
LEMUR-2-HUBBLE-5,2025-135BT,2026-07-19T13:40:31.115712,14.94218694,.0004653,97.7742,314.7761,217.6296,142.4599,0,U,64840,999,5874,.37648172E-4,.346E-5,0
LEMUR-2-KARENDARRELL,2025-135BU,2026-07-19T06:20:31.985376,15.00531727,.00127832,97.7722,316.4333,92.4104,267.8583,0,U,64841,999,5882,.30253323E-3,.376E-4,0
LEMUR-2-LUCILLE-ROSE,2025-135BV,2026-07-19T13:42:29.939904,15.00517853,.00153577,97.7701,316.7746,176.0037,184.1312,0,U,65403,999,5349,.2610698E-3,.3237E-4,0
LEMUR-2-AFFIE-WAUWIE,2025-248C,2026-07-19T06:59:21.872832,15.28363160,.00091591,45.3911,300.8877,273.5136,86.4706,0,U,66295,999,3950,.44190814E-3,.12161E-3,0
OTTER SDM,2025-276N,2026-07-19T04:17:20.798880,15.20082322,.00044924,97.4197,273.1289,235.5851,124.4960,0,U,66678,999,3527,.14288691E-3,.3017E-4,0
LEMUR-2-STAS-GORBUK,2025-276W,2026-07-19T11:08:59.141760,15.19682012,.00038828,97.4230,273.4613,227.7633,132.3273,0,U,66686,999,3531,.12623763E-3,.2626E-4,0
LEMUR-2-TEODOR,2025-276DG,2026-07-19T03:35:40.780320,15.21360535,.00021679,97.4135,273.4286,84.8211,275.3272,0,U,66768,999,3530,.13118075E-3,.287E-4,0
LEMUR-2-LAILA,2025-276DQ,2026-07-19T10:44:50.408160,15.21588896,.0002866,97.4159,273.8635,88.5705,271.5859,0,U,66776,999,3535,.12882792E-3,.2837E-4,0
LEMUR-2-CELIJO-SB-PK,2025-276DW,2026-07-19T04:28:41.704320,15.00308705,.00067658,97.5185,269.9077,54.7906,305.3951,0,U,66781,999,2742,.23838815E-3,.2932E-4,0
