LEMUR-2-ROUNDTRIPPER    
1 62711U 25009DG  26200.49327398  .00003864  00000+0  28211-3 0  9995
2 62711  97.7242 283.1351 0004474  56.4310 303.7343 15.04268201 82485
LEMUR-2-MYNAMEISJEFF    
1 62712U 25009DH  26200.22570929  .00003940  00000+0  28767-3 0  9998
2 62712  97.7290 283.2680 0004354  89.2451 270.9274 15.04257529 82447
LEMUR-2-LEIA-PHILIP     
1 63246U 25052AN  26200.41339758  .00000068  00000+0  10763-4 0  9999
2 63246  97.6793  91.8172 0005045 110.6841 249.4922 14.97392852 73492
LEMUR-2-LIA-MARTIN      
1 63248U 25052AQ  26200.27254357  .00001229  00000+0  10889-3 0  9994
2 63248  97.6853  92.2046 0005046  79.9145 280.2647 14.98043580 73489
LEMUR-2-DELOITTE-1      
1 63259U 25052BB  26200.65450448  .00002308  00000+0  20138-3 0  9994
2 63259  97.6885  92.9105 0002533  58.3586 301.7883 14.97803461 73557
LEMUR-2-EMERSONROSE     
1 63261U 25052BD  26200.26376585  .00002220  00000+0  18657-3 0  9999
2 63261  97.6885  93.1485 0002482  50.6470 309.4973 14.99310415 73542
LEMUR-2-MARACHE-FRAN    
1 63262U 25052BE  26200.21701608  .00001563  00000+0  12932-3 0  9992
2 63262  97.6818  93.4730 0005683 236.5644 123.5037 15.00329187 73566
LEMUR-2-THEFALCONER     
1 63264U 25052BG  26200.28473122  .00001120  00000+0  10089-3 0  9998
2 63264  97.6817  92.1324 0000596 230.6616 129.4553 14.97572429 73498
LEMUR-2-UNTITLED-SC     
1 63351U 25061A   26200.48289525  .00001710  00000+0  98377-4 0  9991
2 63351  97.5660 175.6170 0019604 148.7884 211.4515 15.13661330 72478
LEMUR-2-ESPERANZA       
1 63352U 25061B   26200.45792898  .00001638  00000+0  94157-4 0  9992
2 63352  97.5667 175.6934 0019232 148.2306 212.0090 15.13767290 72472
LEMUR-2-KREMPEL-BRO2    
1 63353U 25061C   26200.60786725  .00001788  00000+0  10118-3 0  9992
2 63353  97.5711 176.4170 0020364 140.7099 219.5614 15.14195193 72515
LEMUR-2-THERMORAPTOR    
1 63354U 25061D   26200.45602289  .00001770  00000+0  99978-4 0  9991
2 63354  97.5719 176.3479 0020076 140.1726 220.0984 15.14277643 72491
LEMUR-2-NEUROSPICY      
1 63355U 25061E   26200.42520301  .00001848  00000+0  10396-3 0  9995
2 63355  97.5647 175.9184 0017842 143.0612 217.1852 15.14396686 72493
LEMUR-2-TILLINFINITY    
1 63356U 25061F   26200.44804321  .00001882  00000+0  10406-3 0  9995
2 63356  97.5631 176.2543 0019342 132.0655 228.2226 15.14981399 72525
LEMUR-2-KREMPEL-BRO1    
1 63357U 25061G   26200.35957869  .00001848  00000+0  10275-3 0  9998
2 63357  97.5633 176.0732 0019991 133.7081 226.5811 15.14787622 72509
LEMUR-2-LANGER2SPACE    
1 63358U 25061H   26200.45861751  .00001802  00000+0  10125-3 0  9998
2 63358  97.5636 175.9728 0017757 141.3528 218.8979 15.14481364 72508
LEMUR-2-BALTO           
1 63395U 25052BH  26200.26792877  .00002106  00000+0  17243-3 0  9996
2 63395  97.6919  93.5170 0004994 310.0792  49.9993 15.00383313 73574
LEMUR-2-KRISH           
1 64561U 25135AK  26200.30607931  .00001953  00000+0  17720-3 0  9994
2 64561  97.7765 314.9702 0001111 103.9432 256.1912 14.96463850 58721
LEMUR-2-HUBBLE-4        
1 64565U 25135AP  26200.62949796  .00000361  00000+0  39490-4 0  9992
2 64565  97.7722 314.1613 0003014 151.7500 208.3883 14.93691943 58710
LEMUR-2-SEJONG-2        
1 64586U 25135BL  26200.59322093  .00002418  00000+0  21556-3 0  9994
2 64586  97.7709 315.4010 0004238 197.8495 162.2578 14.96932235 58798
LEMUR-2-HUBBLE-5        
1 64840U 25135BT  26200.56980458  .00000346  00000+0  37648-4 0  9997
2 64840  97.7742 314.7761 0004653 217.6296 142.4599 14.94218694 58746
LEMUR-2-KARENDARRELL    
1 64841U 25135BU  26200.26425909  .00003760  00000+0  30253-3 0  9997
2 64841  97.7722 316.4333 0012783  92.4104 267.8583 15.00531727 58826
LEMUR-2-LUCILLE-ROSE    
1 65403U 25135BV  26200.57117986  .00003237  00000+0  26107-3 0  9991
2 65403  97.7701 316.7746 0015357 176.0037 184.1312 15.00517853 53496
LEMUR-2-AFFIE-WAUWIE    
1 66295U 25248C   26200.29122538  .00012161  00000+0  44191-3 0  9993
2 66295  45.3911 300.8877 0009159 273.5136  86.4706 15.28363160 39500
OTTER SDM               
1 66678U 25276N   26200.17871295  .00003017  00000+0  14289-3 0  9992
2 66678  97.4197 273.1289 0004492 235.5851 124.4960 15.20082322 35270
LEMUR-2-STAS-GORBUK     
1 66686U 25276W   26200.46457340  .00002626  00000+0  12624-3 0  9990
2 66686  97.4230 273.4613 0003882 227.7633 132.3273 15.19682012 35314
LEMUR-2-TEODOR          
1 66768U 25276DG  26200.14977755  .00002870  00000+0  13118-3 0  9993
2 66768  97.4135 273.4286 0002167  84.8211 275.3272 15.21360535 35306
LEMUR-2-LAILA           
1 66776U 25276DQ  26200.44780565  .00002837  00000+0  12883-3 0  9997
2 66776  97.4159 273.8635 0002866  88.5705 271.5859 15.21588896 35354
LEMUR-2-CELIJO-SB-PK    
1 66781U 25276DW  26200.18659380  .00002932  00000+0  23839-3 0  9993
2 66781  97.5185 269.9077 0006765  54.7906 305.3951 15.00308705 27420
